[{"OBJECT_NAME":"STARLINK-31660","OBJECT_ID":"2024-082M","EPOCH":"2026-03-09T10:49:20.694144","MEAN_MOTION":15.27573152,"ECCENTRICITY":0.0002132,"INCLINATION":43.0042,"RA_OF_ASC_NODE":100.789,"ARG_OF_PERICENTER":327.0181,"MEAN_ANOMALY":33.0537,"EPHEMERIS_TYPE":0,"CLASSIFICATION_TYPE":"U","NORAD_CAT_ID":59642,"ELEMENT_SET_NO":999,"REV_AT_EPOCH":10543,"BSTAR":-2.19301e-7,"MEAN_MOTION_DOT":-2.69e-6,"MEAN_MOTION_DDOT":0},{"OBJECT_NAME":"CZ-6A DEB","OBJECT_ID":"2022-151NB","EPOCH":"2026-03-09T18:26:17.609568","MEAN_MOTION":15.22372787,"ECCENTRICITY":0.00267955,"INCLINATION":98.6489,"RA_OF_ASC_NODE":154.0342,"ARG_OF_PERICENTER":180.4296,"MEAN_ANOMALY":179.6918,"EPHEMERIS_TYPE":0,"CLASSIFICATION_TYPE":"U","NORAD_CAT_ID":54601,"ELEMENT_SET_NO":999,"REV_AT_EPOCH":17694,"BSTAR":0.011449911,"MEAN_MOTION_DOT":0.00276508,"MEAN_MOTION_DDOT":0}]
